{"fetched_at":"2026-07-08T07:03:34.892Z","source":"https://celestrak.org/NORAD/elements/gp.php?GROUP=oneweb&FORMAT=JSON","constellation":"oneweb","records":[{"OBJECT_NAME":"ONEWEB-0275","OBJECT_ID":"2021-060AC","EPOCH":"2026-07-07T01:33:04.239360","CLASSIFICATION_TYPE":"U","MEAN_MOTION":13.16595199,"ECCENTRICITY":0.00019734,"INCLINATION":87.9081,"RA_OF_ASC_NODE":224.8279,"ARG_OF_PERICENTER":96.1703,"MEAN_ANOMALY":263.9653,"EPHEMERIS_TYPE":0,"NORAD_CAT_ID":48993,"ELEMENT_SET_NO":999,"REV_AT_EPOCH":24217,"BSTAR":-0.000059659145,"MEAN_MOTION_DOT":-1e-7,"MEAN_MOTION_DDOT":0},{"OBJECT_NAME":"ONEWEB-0276","OBJECT_ID":"2021-060AD","EPOCH":"2026-07-07T04:10:23.411712","CLASSIFICATION_TYPE":"U","MEAN_MOTION":13.1659341,"ECCENTRICITY":0.00019027,"INCLINATION":87.9082,"RA_OF_ASC_NODE":224.8052,"ARG_OF_PERICENTER":93.3517,"MEAN_ANOMALY":266.7831,"EPHEMERIS_TYPE":0,"NORAD_CAT_ID":48994,"ELEMENT_SET_NO":999,"REV_AT_EPOCH":24220,"BSTAR":0.00026549608,"MEAN_MOTION_DOT":0.00000114,"MEAN_MOTION_DDOT":0},{"OBJECT_NAME":"ONEWEB-0277","OBJECT_ID":"2021-060AE","EPOCH":"2026-07-07T00:49:46.345152","CLASSIFICATION_TYPE":"U","MEAN_MOTION":13.16594865,"ECCENTRICITY":0.0002083,"INCLINATION":87.9078,"RA_OF_ASC_NODE":224.8406,"ARG_OF_PERICENTER":99.5011,"MEAN_ANOMALY":260.6355,"EPHEMERIS_TYPE":0,"NORAD_CAT_ID":48995,"ELEMENT_SET_NO":999,"REV_AT_EPOCH":24217,"BSTAR":0.00013282085,"MEAN_MOTION_DOT":6.4e-7,"MEAN_MOTION_DDOT":0},{"OBJECT_NAME":"ONEWEB-0278","OBJECT_ID":"2021-060AF","EPOCH":"2026-07-07T02:25:30.930816","CLASSIFICATION_TYPE":"U","MEAN_MOTION":13.16593763,"ECCENTRICITY":0.00022548,"INCLINATION":87.9081,"RA_OF_ASC_NODE":224.8192,"ARG_OF_PERICENTER":91.3886,"MEAN_ANOMALY":268.7504,"EPHEMERIS_TYPE":0,"NORAD_CAT_ID":48996,"ELEMENT_SET_NO":999,"REV_AT_EPOCH":24231,"BSTAR":0.00016733421,"MEAN_MOTION_DOT":7.7e-7,"MEAN_MOTION_DDOT":0},{"OBJECT_NAME":"ONEWEB-0279","OBJECT_ID":"2021-060AG","EPOCH":"2026-07-06T15:40:17.969664","CLASSIFICATION_TYPE":"U","MEAN_MOTION":13.16593929,"ECCENTRICITY":0.00019141,"INCLINATION":87.9083,"RA_OF_ASC_NODE":224.906,"ARG_OF_PERICENTER":100.4215,"MEAN_ANOMALY":259.7132,"EPHEMERIS_TYPE":0,"NORAD_CAT_ID":48997,"ELEMENT_SET_NO":999,"REV_AT_EPOCH":24218,"BSTAR":-0.000059590325,"MEAN_MOTION_DOT":-1e-7,"MEAN_MOTION_DDOT":0},{"OBJECT_NAME":"ONEWEB-0280","OBJECT_ID":"2021-060AH","EPOCH":"2026-07-06T14:12:31.356576","CLASSIFICATION_TYPE":"U","MEAN_MOTION":13.16594545,"ECCENTRICITY":0.00023947,"INCLINATION":87.9082,"RA_OF_ASC_NODE":224.9225,"ARG_OF_PERICENTER":99.0421,"MEAN_ANOMALY":261.0981,"EPHEMERIS_TYPE":0,"NORAD_CAT_ID":48998,"ELEMENT_SET_NO":999,"REV_AT_EPOCH":24211,"BSTAR":-0.00011377018,"MEAN_MOTION_DOT":-3.1e-7,"MEAN_MOTION_DDOT":0},{"OBJECT_NAME":"ONEWEB-0281","OBJECT_ID":"2021-060AJ","EPOCH":"2026-07-07T15:52:35.812704","CLASSIFICATION_TYPE":"U","MEAN_MOTION":13.16593576,"ECCENTRICITY":0.0002146,"INCLINATION":87.9082,"RA_OF_ASC_NODE":224.7054,"ARG_OF_PERICENTER":93.7077,"MEAN_ANOMALY":266.4299,"EPHEMERIS_TYPE":0,"NORAD_CAT_ID":48999,"ELEMENT_SET_NO":999,"REV_AT_EPOCH":24232,"BSTAR":-0.000095875,"MEAN_MOTION_DOT":-2.4e-7,"MEAN_MOTION_DDOT":0},{"OBJECT_NAME":"ONEWEB-0282","OBJECT_ID":"2021-060AK","EPOCH":"2026-07-07T02:00:26.183232","CLASSIFICATION_TYPE":"U","MEAN_MOTION":13.16594409,"ECCENTRICITY":0.00021405,"INCLINATION":87.9078,"RA_OF_ASC_NODE":224.828,"ARG_OF_PERICENTER":99.0693,"MEAN_ANOMALY":261.068,"EPHEMERIS_TYPE":0,"NORAD_CAT_ID":49000,"ELEMENT_SET_NO":999,"REV_AT_EPOCH":24222,"BSTAR":0.00010805508,"MEAN_MOTION_DOT":5.4e-7,"MEAN_MOTION_DDOT":0},{"OBJECT_NAME":"ONEWEB-0283","OBJECT_ID":"2021-060AL","EPOCH":"2026-07-07T01:44:27.687552","CLASSIFICATION_TYPE":"U","MEAN_MOTION":13.16593034,"ECCENTRICITY":0.00019687,"INCLINATION":87.9078,"RA_OF_ASC_NODE":224.8297,"ARG_OF_PERICENTER":98.8153,"MEAN_ANOMALY":261.3201,"EPHEMERIS_TYPE":0,"NORAD_CAT_ID":49001,"ELEMENT_SET_NO":999,"REV_AT_EPOCH":24223,"BSTAR":0.000092159847,"MEAN_MOTION_DOT":4.8e-7,"MEAN_MOTION_DDOT":0},{"OBJECT_NAME":"ONEWEB-0284","OBJECT_ID":"2021-060AM","EPOCH":"2026-07-06T14:38:44.742048","CLASSIFICATION_TYPE":"U","MEAN_MOTION":13.16593553,"ECCENTRICITY":0.00023877,"INCLINATION":87.908,"RA_OF_ASC_NODE":224.9153,"ARG_OF_PERICENTER":95.6619,"MEAN_ANOMALY":264.4784,"EPHEMERIS_TYPE":0,"NORAD_CAT_ID":49002,"ELEMENT_SET_NO":999,"REV_AT_EPOCH":24215,"BSTAR":0.000035283752,"MEAN_MOTION_DOT":2.6e-7,"MEAN_MOTION_DDOT":0},{"OBJECT_NAME":"ONEWEB-0285","OBJECT_ID":"2021-075A","EPOCH":"2026-07-07T09:58:28.235712","CLASSIFICATION_TYPE":"U","MEAN_MOTION":13.12444483,"ECCENTRICITY":0.00018108,"INCLINATION":87.8964,"RA_OF_ASC_NODE":346.6396,"ARG_OF_PERICENTER":87.0634,"MEAN_ANOMALY":273.0702,"EPHEMERIS_TYPE":0,"NORAD_CAT_ID":49075,"ELEMENT_SET_NO":999,"REV_AT_EPOCH":23786,"BSTAR":0.00063780958,"MEAN_MOTION_DOT":0.00000242,"MEAN_MOTION_DDOT":0},{"OBJECT_NAME":"ONEWEB-0286","OBJECT_ID":"2021-075B","EPOCH":"2026-07-07T09:32:38.160096","CLASSIFICATION_TYPE":"U","MEAN_MOTION":13.1244271,"ECCENTRICITY":0.00018169,"INCLINATION":87.8952,"RA_OF_ASC_NODE":346.6581,"ARG_OF_PERICENTER":87.6624,"MEAN_ANOMALY":272.4712,"EPHEMERIS_TYPE":0,"NORAD_CAT_ID":49076,"ELEMENT_SET_NO":999,"REV_AT_EPOCH":23721,"BSTAR":-0.00088458885,"MEAN_MOTION_DOT":-0.00000306,"MEAN_MOTION_DDOT":0},{"OBJECT_NAME":"ONEWEB-0287","OBJECT_ID":"2021-075C","EPOCH":"2026-07-07T10:35:54.250368","CLASSIFICATION_TYPE":"U","MEAN_MOTION":13.17647767,"ECCENTRICITY":0.00020613,"INCLINATION":87.9136,"RA_OF_ASC_NODE":1.8356,"ARG_OF_PERICENTER":80.5509,"MEAN_ANOMALY":279.5856,"EPHEMERIS_TYPE":0,"NORAD_CAT_ID":49077,"ELEMENT_SET_NO":999,"REV_AT_EPOCH":23629,"BSTAR":0.000012765685,"MEAN_MOTION_DOT":1.8e-7,"MEAN_MOTION_DDOT":0},{"OBJECT_NAME":"ONEWEB-0288","OBJECT_ID":"2021-075D","EPOCH":"2026-07-07T08:58:40.473120","CLASSIFICATION_TYPE":"U","MEAN_MOTION":13.12440872,"ECCENTRICITY":0.00020221,"INCLINATION":87.8961,"RA_OF_ASC_NODE":346.6409,"ARG_OF_PERICENTER":89.069,"MEAN_ANOMALY":271.067,"EPHEMERIS_TYPE":0,"NORAD_CAT_ID":49078,"ELEMENT_SET_NO":999,"REV_AT_EPOCH":23783,"BSTAR":-0.000082033756,"MEAN_MOTION_DOT":-1.7e-7,"MEAN_MOTION_DDOT":0},{"OBJECT_NAME":"ONEWEB-0289","OBJECT_ID":"2021-075E","EPOCH":"2026-07-07T11:31:40.664064","CLASSIFICATION_TYPE":"U","MEAN_MOTION":13.17624438,"ECCENTRICITY":0.00021307,"INCLINATION":87.9144,"RA_OF_ASC_NODE":1.8462,"ARG_OF_PERICENTER":99.1236,"MEAN_ANOMALY":261.0137,"EPHEMERIS_TYPE":0,"NORAD_CAT_ID":49079,"ELEMENT_SET_NO":999,"REV_AT_EPOCH":23687,"BSTAR":-0.0050570535,"MEAN_MOTION_DOT":-0.00001949,"MEAN_MOTION_DDOT":0},{"OBJECT_NAME":"ONEWEB-0290","OBJECT_ID":"2021-075F","EPOCH":"2026-07-07T18:10:19.513056","CLASSIFICATION_TYPE":"U","MEAN_MOTION":13.17650477,"ECCENTRICITY":0.0002293,"INCLINATION":87.9146,"RA_OF_ASC_NODE":1.7633,"ARG_OF_PERICENTER":99.8189,"MEAN_ANOMALY":260.3202,"EPHEMERIS_TYPE":0,"NORAD_CAT_ID":49080,"ELEMENT_SET_NO":999,"REV_AT_EPOCH":23632,"BSTAR":0.00019787,"MEAN_MOTION_DOT":9e-7,"MEAN_MOTION_DDOT":0}]}
